1 32192U 99025CUN 24277.69433428  .00001822  00000-0  15301-2 0  9998
2 32192  98.6976 176.5277 0181833 261.5028  96.5484 13.81946729867026
1 32195U 99025CUR 24275.75422800  .00002894  00000-0  17145-2 0  9996
2 32195  98.7776 284.4032 0071749  91.8681 269.0707 14.07092033578336
1 32197U 99025CUT 24277.47155000  .00006892  00000-0  22750-2 0  9994
2 32197  98.9262 168.6947 0167989  61.4486 111.7647 14.30653657895313
1 32198U 99025CUU 24275.30047885  .00008464  00000-0  51051-2 0  9999
2 32198  98.3221  90.2306 0099325 100.8847 260.3518 14.04396922507946
1 32200U 99025CUW 24277.87281551  .00010188  00000-0  54365-2 0  9994
2 32200  98.8314 326.6327 0042768  90.0981 270.5092 14.12960311882152
1 32203U 99025CUZ 24278.20310429  .00044799  00000-0  14048-2 0  9991
2 32203  97.0552 188.4582 0225693 199.2129 160.0492 15.11662266922221
1 32205U 99025CVB 24276.97874380  .00001543  00000-0  84345-3 0  9994
2 32205  98.6855 287.5767 0012278  93.3072 297.0096 14.13410999887435
1 32207U 99025CVD 24270.93044308  .00003291  00000-0  10667-2 0  9992
2 32207  99.8386 159.6062 0087569 325.1652 102.0917 14.37631278579549
1 32209U 99025CVF 24278.37090755  .00010769  00000-0  12975-1 0  9998
2 32209  99.3907 245.6617 0340529  29.2642 332.7103 13.44875658842200
1 32212U 99025CVJ 24276.07433056  .00004513  00000-0  13482-2 0  9997
2 32212  99.6132 315.4557 0141507 261.8350 128.3037 14.37900235897805
1 32214U 99025CVL 24277.85747031  .00025882  00000-0  19617-1 0  9994
2 32214  99.0717 310.3093 0215364 134.8930  37.3214 13.83481265563909
1 32217U 99025CVP 24251.29403962  .00039831  00000-0  89446-2 0  9996
2 32217  99.1176 276.7561 0033819 358.0618   2.0441 14.55992530493380
1 32218U 99025CVQ 24277.40871487  .00016751  00000-0  43560-2 0  9992
2 32218  98.8097  83.1186 0070905 306.8450  84.4129 14.48188105900662
1 32221U 99025CVT 24277.63434146  .00006113  00000-0  11952-2 0  9999
2 32221  98.5113  50.2050 0152807  45.7478 315.6144 14.56020080909726
1 32223U 99025CVV 24276.45157617  .00014222  00000-0  70606-2 0  9996
2 32223  98.8599 350.2562 0053321 129.2476 296.2494 14.16454416580364
1 32224U 99025CVW 24278.27033804  .00004698  00000-0  16920-2 0  9995
2 32224  98.9328 208.2005 0076385 256.4612 102.8052 14.32567172896432
1 32225U 99025CVX 24276.32810950  .00001704  00000-0  92544-3 0  9997
2 32225  99.1507 311.0034 0072111 355.1900   4.8570 14.12434775884354
1 32227U 99025CVZ 24277.92628394  .00289370  00000-0  66253-2 0  9999
2 32227  99.4637 340.7894 0040854 352.6489   7.4147 15.40814916929933
1 32230U 99025CWC 24278.30476667  .00033668  00000-0  10500-1 0  9990
2 32230  98.8593  40.2271 0070460 312.4997  76.0328 14.39280680894134
1 32234U 99025CWG 24267.60039211  .00003354  00000-0  24669-2 0  9996
2 32234  98.5630 145.0437 0139546 127.6176 233.7747 13.91684124871704
1 32241U 99025CWP 24277.76182426  .00020011  00000-0  78168-2 0  9991
2 32241  99.1031 284.4330 0158446  36.7349 324.4564 14.22938949876225
1 32243U 99025CWR 24278.10608259  .00020372  00000-0  10024-1 0  9995
2 32243  98.2997 335.4812 0284820 275.4893  81.3851 13.98613125875249
1 32245U 99025CWT 24277.72612657  .00034295  00000-0  58792-2 0  9995
2 32245  98.6533  80.0508 0120963 266.0435  92.6931 14.63901667597082
1 32252U 07044A   24278.51090802 -.00000100  00000-0  00000+0 0  9998
2 32252   0.4591  89.9688 0005004 121.7652 146.0030  1.00272712 62224
1 32253U 07044B   24278.17374278 -.00000260  00000-0  00000+0 0  9990
2 32253   1.9412  86.3466 0003103 124.2638 182.3195  1.00272957 62303
1 32254U 07044C   24277.71504867  .00001542  00000-0  24215-2 0  9999
2 32254   4.4246 273.1892 7074201 258.5673  20.7639  2.48617141152848
1 32255U 07044D   24277.82639502  .00000302  00000-0  44383-2 0  9998
2 32255   4.3936 303.4653 7162929 208.8500 122.5570  2.26705586140409
1 32258U 07046A   24278.03938179 -.00000260  00000-0  00000+0 0  9998
2 32258   0.1377  91.2185 0001168 117.7342 135.9544  1.00271420 62092
1 32260U 07047A   24277.99309644  .00000034  00000-0  00000+0 0  9993
2 32260  53.6667 105.7411 0159182  77.8497 283.9962  2.00559016124379
1 32263U 07048A   24278.45830316 -.00000061  00000-0  26950-3 0  9991
2 32263  51.9730  64.2047 0001537 130.7337 267.6266 12.40656423777982
1 32264U 07048B   24277.90827912 -.00000032  00000-0  40125-3 0  9997
2 32264  51.9742 189.2244 0000446  57.3914  18.8798 12.62301698781308
1 32265U 07048C   24278.40841303 -.00000070  00000-0  19372-3 0  9996
2 32265  51.9685  52.3673 0001241  42.3527 352.8996 12.53547063784525
1 32266U 07048D   24278.17466701 -.00000016  00000-0  48901-3 0  9996
2 32266  51.9916   2.6570 0000387 294.5390  97.3287 12.62801944785500
1 32275U 07052A   24277.61769524 -.00000055  00000-0  00000-0 0  9996
2 32275  65.8912 336.7738 0005276 234.8513 125.1751  2.13104228131814
1 32276U 07052B   24278.15674340 -.00000054  00000-0  00000+0 0  9996
2 32276  65.9061 336.8717 0009561 309.6901  49.7564  2.13103256131859
1 32277U 07052C   24276.43955707 -.00000057  00000-0  00000+0 0  9998
2 32277  65.9048 336.7484 0015461 179.0313 183.3137  2.13208884131963
1 32278U 07052D   24275.36617814 -.00000059  00000-0  00000-0 0  9997
2 32278  65.8864 336.2746 0018052 199.9521 181.5317  2.13394163131838
1 32281U 07052G   24276.23262422  .00000030  00000-0  12178-3 0  9999
2 32281  65.3326 158.8326 5618125 234.0750  60.0690  4.23661191261525
1 32288U 07054B   24278.05925196 -.00000150  00000-0  00000+0 0  9995
2 32288  10.0592  57.2536 0239612 124.1162 238.2424  0.95871052 19271
1 32289U 07055A   24278.52025613  .00009200  00000-0  10496-2 0  9991
2 32289  97.8807 302.8244 0001263  84.4532 275.6828 14.86325000913567
1 32293U 07056A   24277.85819325 -.00000212  00000-0  00000-0 0  9996
2 32293   3.1372  83.3803 0013397 165.4912 241.9495  0.99069452  9235
1 32294U 07056B   24277.75819394  .00000149  00000-0  00000-0 0  9990
2 32294   3.6601  80.8475 0003741 111.3202 118.8226  1.00271366 61961
1 32295U 07056C   24277.84079236  .00016629  00000-0  21015-2 0  9995
2 32295   6.0687 169.5116 6819126 188.9942 146.0967  2.89910673156104
1 32299U 07057A   24277.89721420  .00000039  00000-0  00000-0 0  9991
2 32299   0.0438  49.0735 0003042 148.1303 143.7058  1.00273430 45411
1 32301U 07057C   24277.98418146 -.00000022  00000-0  00000+0 0  9995
2 32301  16.8974  85.5094 5189570 180.2904 191.7927  1.90169763117250
1 32304U 99025CWV 24268.94130658  .00008992  00000-0  26289-2 0  9992
2 32304  99.3763 169.5987 0059065  97.6046 263.1855 14.43230152898520
1 32308U 99025CWZ 24277.25111640  .00012737  00000-0  79923-2 0  9995
2 32308  97.7835  26.2776 0116033 232.2110 126.8507 14.01264450860024
1 32313U 99025CXE 24277.97557253  .00016344  00000-0  98560-2 0  9990
2 32313  99.0451 342.3406 0138051 196.5312 163.1330 14.02054590874645
1 32314U 99025CXF 24277.40117579  .00028317  00000-0  39105-2 0  9995
2 32314  98.8866 335.5876 0180006  80.3939 281.7550 14.67460140910151
1 32315U 99025CXG 24277.96126821  .00000940  00000-0  10078-2 0  9997
2 32315 100.7755   6.2443 0229757 102.1532 260.5445 13.65907245865845
1 32316U 99025CXH 24277.85999240  .00017265  00000-0  49840-2 0  9996
2 32316  99.5214 242.5816 0029962 171.6506 255.0315 14.44408948894805
1 32320U 99025CXM 24277.15582573  .00015514  00000-0  57246-2 0  9995
2 32320 100.3650  41.5007 0060844 185.6479 174.4019 14.31539388897483
1 32322U 99025CXP 24277.59493540  .00002864  00000-0  35900-2 0  9997
2 32322  98.3665 231.5757 0423906 114.4264 250.1700 13.32717668836317
1 32323U 99025CXQ 24270.70742080  .00006078  00000-0  44080-2 0  9990
2 32323  98.5518  80.0074 0164874 355.4257   4.5388 13.90450823541116
1 32324U 99025CXR 24277.44924743  .00003768  00000-0  22226-2 0  9998
2 32324  99.5500 348.4794 0052248 142.5537 217.9288 14.07837095885519
1 32326U 99025CXT 24276.90458887  .00002952  00000-0  20800-2 0  9991
2 32326  98.4429 252.1306 0389990 223.1117 133.8876 13.67763506857794
1 32331U 99025CXY 24278.02200350  .00072431  00000-0  21938-1 0  9993
2 32331  99.1920 195.1507 0032240   8.5876 351.5856 14.41507577889321
1 32332U 99025CXZ 24277.86650564  .00014282  00000-0  75786-2 0  9992
2 32332  99.1656 328.3739 0296167  62.8011 300.3006 13.93585709869707
1 32334U 99025CYB 24278.06052217  .00003112  00000-0  20817-2 0  9993
2 32334  99.2966 319.5266 0064860  33.2168 327.3042 14.00689692878501
1 32338U 99025CYF 24268.34459452  .00009212  00000-0  26717-2 0  9991
2 32338  98.9144 128.9086 0059483 197.0379 162.8813 14.43579675587049
1 32340U 99025CYH 24278.33749229  .00034814  00000-0  78548-2 0  9993
2 32340  98.9643 237.8158 0047636 184.4505 175.6273 14.55470340908315
1 32342U 99025CYK 24278.00792222  .00001033  00000-0  57581-3 0  9992
2 32342  98.6890 293.7035 0008506 137.4279 277.7109 14.13099831878462
1 32343U 99025CYL 24273.25009749  .00002881  00000-0  12611-2 0  9996
2 32343  98.5782 267.0027 0152203 318.1482  40.8137 14.18493643584799
1 32350U 99025CYT 24276.57515638  .00017561  00000-0  29294-2 0  9997
2 32350  98.2915 323.4790 0289671 196.3296 162.8413 14.45904357912072
1 32352U 99025CYV 24277.00366878  .00006840  00000-0  20031-2 0  9996
2 32352  98.7812 179.5841 0126586  28.2038 332.5929 14.39656609589956
1 32353U 99025CYW 24276.76219841  .00014740  00000-0  96308-2 0  9994
2 32353  98.9136  96.9996 0132965 329.8569  29.4990 13.98062473570873
1 32355U 99025CYY 24276.24279229  .00063535  00000-0  12522-1 0  9996
2 32355 100.3811  66.1643 0093332 305.7260 177.7236 14.59408377901824
1 32356U 99025CYZ 24277.43679725  .00009526  00000-0  62252-2 0  9990
2 32356 102.4920 335.0118 0130674 349.2042  10.6311 13.98453932879907
1 32357U 99025CZA 24277.94213117  .00019941  00000-0  10478-1 0  9990
2 32357  98.9226 345.6869 0525072 251.2762 293.0779 13.60722478849261
1 32360U 99025CZD 24275.40029375  .00011363  00000-0  69433-2 0  9990
2 32360  98.1215 138.1674 0248088  99.3608 263.5694 13.91924739587167
